[{"OBJECT_NAME":"O3B FM10","OBJECT_ID":"2014-083A","EPOCH":"2026-04-04T19:11:16.853568","MEAN_MOTION":5.00115376,"ECCENTRICITY":0.00026883,"INCLINATION":0.0434,"RA_OF_ASC_NODE":335.9114,"ARG_OF_PERICENTER":36.1585,"MEAN_ANOMALY":347.9352,"EPHEMERIS_TYPE":0,"CLASSIFICATION_TYPE":"U","NORAD_CAT_ID":40348,"ELEMENT_SET_NO":999,"REV_AT_EPOCH":20622,"BSTAR":0,"MEAN_MOTION_DOT":-2.6e-7,"MEAN_MOTION_DDOT":0},{"OBJECT_NAME":"O3B FM11","OBJECT_ID":"2014-083B","EPOCH":"2026-04-05T00:17:24.393696","MEAN_MOTION":5.00115634,"ECCENTRICITY":0.00030088,"INCLINATION":0.058,"RA_OF_ASC_NODE":0.0123,"ARG_OF_PERICENTER":1.2193,"MEAN_ANOMALY":358.7679,"EPHEMERIS_TYPE":0,"CLASSIFICATION_TYPE":"U","NORAD_CAT_ID":40349,"ELEMENT_SET_NO":999,"REV_AT_EPOCH":20625,"BSTAR":0,"MEAN_MOTION_DOT":-2.6e-7,"MEAN_MOTION_DDOT":0},{"OBJECT_NAME":"O3B FM12","OBJECT_ID":"2014-083C","EPOCH":"2026-04-05T00:56:23.572608","MEAN_MOTION":5.00115951,"ECCENTRICITY":0.00025834,"INCLINATION":0.0571,"RA_OF_ASC_NODE":359.5496,"ARG_OF_PERICENTER":10.9095,"MEAN_ANOMALY":349.5449,"EPHEMERIS_TYPE":0,"CLASSIFICATION_TYPE":"U","NORAD_CAT_ID":40350,"ELEMENT_SET_NO":999,"REV_AT_EPOCH":20626,"BSTAR":0,"MEAN_MOTION_DOT":-2.6e-7,"MEAN_MOTION_DDOT":0},{"OBJECT_NAME":"O3B FM9","OBJECT_ID":"2014-083D","EPOCH":"2026-04-03T06:24:26.823168","MEAN_MOTION":5.00115977,"ECCENTRICITY":0.00027068,"INCLINATION":0.0591,"RA_OF_ASC_NODE":0.1634,"ARG_OF_PERICENTER":11.5018,"MEAN_ANOMALY":348.3391,"EPHEMERIS_TYPE":0,"CLASSIFICATION_TYPE":"U","NORAD_CAT_ID":40351,"ELEMENT_SET_NO":999,"REV_AT_EPOCH":20632,"BSTAR":0,"MEAN_MOTION_DOT":-2.6e-7,"MEAN_MOTION_DDOT":0},{"OBJECT_NAME":"ASTRA 2G","OBJECT_ID":"2014-089A","EPOCH":"2026-04-05T05:12:38.653056","MEAN_MOTION":1.00273844,"ECCENTRICITY":0.00049241,"INCLINATION":0.051,"RA_OF_ASC_NODE":3.2595,"ARG_OF_PERICENTER":42.3758,"MEAN_ANOMALY":254.2388,"EPHEMERIS_TYPE":0,"CLASSIFICATION_TYPE":"U","NORAD_CAT_ID":40364,"ELEMENT_SET_NO":999,"REV_AT_EPOCH":4123,"BSTAR":0,"MEAN_MOTION_DOT":1.51e-6,"MEAN_MOTION_DDOT":0},{"OBJECT_NAME":"SES-9","OBJECT_ID":"2016-013A","EPOCH":"2026-04-05T06:24:44.637984","MEAN_MOTION":1.00271767,"ECCENTRICITY":0.00020629,"INCLINATION":0.0151,"RA_OF_ASC_NODE":264.8098,"ARG_OF_PERICENTER":149.9234,"MEAN_ANOMALY":343.3098,"EPHEMERIS_TYPE":0,"CLASSIFICATION_TYPE":"U","NORAD_CAT_ID":41380,"ELEMENT_SET_NO":999,"REV_AT_EPOCH":3670,"BSTAR":0,"MEAN_MOTION_DOT":-3.44e-6,"MEAN_MOTION_DDOT":0},{"OBJECT_NAME":"SES-10","OBJECT_ID":"2017-017A","EPOCH":"2026-04-04T22:44:14.616096","MEAN_MOTION":1.00271137,"ECCENTRICITY":0.00029539,"INCLINATION":0.019,"RA_OF_ASC_NODE":90.0286,"ARG_OF_PERICENTER":299.7399,"MEAN_ANOMALY":77.6474,"EPHEMERIS_TYPE":0,"CLASSIFICATION_TYPE":"U","NORAD_CAT_ID":42432,"ELEMENT_SET_NO":999,"REV_AT_EPOCH":3302,"BSTAR":0,"MEAN_MOTION_DOT":-2.72e-6,"MEAN_MOTION_DDOT":0},{"OBJECT_NAME":"SES-15","OBJECT_ID":"2017-026A","EPOCH":"2026-04-05T05:49:38.479008","MEAN_MOTION":1.00270997,"ECCENTRICITY":7.603e-5,"INCLINATION":0.0309,"RA_OF_ASC_NODE":319.9281,"ARG_OF_PERICENTER":63.9952,"MEAN_ANOMALY":127.8662,"EPHEMERIS_TYPE":0,"CLASSIFICATION_TYPE":"U","NORAD_CAT_ID":42709,"ELEMENT_SET_NO":999,"REV_AT_EPOCH":670,"BSTAR":0,"MEAN_MOTION_DOT":6.1e-7,"MEAN_MOTION_DDOT":0},{"OBJECT_NAME":"SES-11 (ECHOSTAR 105)","OBJECT_ID":"2017-063A","EPOCH":"2026-04-05T03:41:23.061696","MEAN_MOTION":1.00272418,"ECCENTRICITY":0.00028411,"INCLINATION":0.0509,"RA_OF_ASC_NODE":53.4038,"ARG_OF_PERICENTER":339.2332,"MEAN_ANOMALY":111.2206,"EPHEMERIS_TYPE":0,"CLASSIFICATION_TYPE":"U","NORAD_CAT_ID":42967,"ELEMENT_SET_NO":999,"REV_AT_EPOCH":3099,"BSTAR":0,"MEAN_MOTION_DOT":-8.8e-7,"MEAN_MOTION_DDOT":0},{"OBJECT_NAME":"SES-14","OBJECT_ID":"2018-012B","EPOCH":"2026-04-05T03:57:43.993728","MEAN_MOTION":1.00275364,"ECCENTRICITY":9.896e-5,"INCLINATION":0.0023,"RA_OF_ASC_NODE":65.2678,"ARG_OF_PERICENTER":307.9861,"MEAN_ANOMALY":192.1556,"EPHEMERIS_TYPE":0,"CLASSIFICATION_TYPE":"U","NORAD_CAT_ID":43175,"ELEMENT_SET_NO":999,"REV_AT_EPOCH":629,"BSTAR":0,"MEAN_MOTION_DOT":-2.77e-6,"MEAN_MOTION_DDOT":0},{"OBJECT_NAME":"O3B FM15","OBJECT_ID":"2018-024A","EPOCH":"2026-04-02T03:13:32.937600","MEAN_MOTION":5.00115731,"ECCENTRICITY":0.0002633,"INCLINATION":0.0502,"RA_OF_ASC_NODE":3.1354,"ARG_OF_PERICENTER":6.1622,"MEAN_ANOMALY":350.7046,"EPHEMERIS_TYPE":0,"CLASSIFICATION_TYPE":"U","NORAD_CAT_ID":43231,"ELEMENT_SET_NO":999,"REV_AT_EPOCH":14722,"BSTAR":0,"MEAN_MOTION_DOT":-2.7e-7,"MEAN_MOTION_DDOT":0},{"OBJECT_NAME":"O3B FM16","OBJECT_ID":"2018-024B","EPOCH":"2026-04-05T04:26:35.089440","MEAN_MOTION":5.00116016,"ECCENTRICITY":0.00026966,"INCLINATION":0.0472,"RA_OF_ASC_NODE":6.5481,"ARG_OF_PERICENTER":4.2611,"MEAN_ANOMALY":349.1954,"EPHEMERIS_TYPE":0,"CLASSIFICATION_TYPE":"U","NORAD_CAT_ID":43232,"ELEMENT_SET_NO":999,"REV_AT_EPOCH":14728,"BSTAR":0,"MEAN_MOTION_DOT":-2.5e-7,"MEAN_MOTION_DDOT":0},{"OBJECT_NAME":"O3B FM14","OBJECT_ID":"2018-024C","EPOCH":"2026-04-04T19:49:36.543360","MEAN_MOTION":5.00115735,"ECCENTRICITY":0.00028503,"INCLINATION":0.0457,"RA_OF_ASC_NODE":6.0929,"ARG_OF_PERICENTER":8.8259,"MEAN_ANOMALY":345.0883,"EPHEMERIS_TYPE":0,"CLASSIFICATION_TYPE":"U","NORAD_CAT_ID":43233,"ELEMENT_SET_NO":999,"REV_AT_EPOCH":14728,"BSTAR":0,"MEAN_MOTION_DOT":-2.6e-7,"MEAN_MOTION_DDOT":0},{"OBJECT_NAME":"O3B FM13","OBJECT_ID":"2018-024D","EPOCH":"2026-03-25T16:44:28.678560","MEAN_MOTION":5.00115556,"ECCENTRICITY":0.00039678,"INCLINATION":0.047,"RA_OF_ASC_NODE":335.8508,"ARG_OF_PERICENTER":348.6026,"MEAN_ANOMALY":35.5167,"EPHEMERIS_TYPE":0,"CLASSIFICATION_TYPE":"U","NORAD_CAT_ID":43234,"ELEMENT_SET_NO":999,"REV_AT_EPOCH":14688,"BSTAR":0,"MEAN_MOTION_DOT":-2.4e-7,"MEAN_MOTION_DDOT":0},{"OBJECT_NAME":"SES-12","OBJECT_ID":"2018-049A","EPOCH":"2026-04-05T02:55:42.444192","MEAN_MOTION":1.00272409,"ECCENTRICITY":0.00016464,"INCLINATION":0.04,"RA_OF_ASC_NODE":47.843,"ARG_OF_PERICENTER":265.9853,"MEAN_ANOMALY":18.5234,"EPHEMERIS_TYPE":0,"CLASSIFICATION_TYPE":"U","NORAD_CAT_ID":43488,"ELEMENT_SET_NO":999,"REV_AT_EPOCH":2868,"BSTAR":0,"MEAN_MOTION_DOT":-2.69e-6,"MEAN_MOTION_DDOT":0},{"OBJECT_NAME":"O3B FM20","OBJECT_ID":"2019-020A","EPOCH":"2026-04-05T01:14:56.220576","MEAN_MOTION":5.00115564,"ECCENTRICITY":0.0002663,"INCLINATION":0.053,"RA_OF_ASC_NODE":0.9141,"ARG_OF_PERICENTER":2.6728,"MEAN_ANOMALY":356.4138,"EPHEMERIS_TYPE":0,"CLASSIFICATION_TYPE":"U","NORAD_CAT_ID":44112,"ELEMENT_SET_NO":999,"REV_AT_EPOCH":12790,"BSTAR":0,"MEAN_MOTION_DOT":-2.5e-7,"MEAN_MOTION_DDOT":0},{"OBJECT_NAME":"O3B FM19","OBJECT_ID":"2019-020B","EPOCH":"2026-04-05T01:53:57.299424","MEAN_MOTION":5.00116062,"ECCENTRICITY":0.00042907,"INCLINATION":0.0578,"RA_OF_ASC_NODE":352.7385,"ARG_OF_PERICENTER":10.0637,"MEAN_ANOMALY":357.199,"EPHEMERIS_TYPE":0,"CLASSIFICATION_TYPE":"U","NORAD_CAT_ID":44113,"ELEMENT_SET_NO":999,"REV_AT_EPOCH":12778,"BSTAR":0,"MEAN_MOTION_DOT":-2.6e-7,"MEAN_MOTION_DDOT":0}]
